#dP2023 12 13 12  0  0.00000000      96 __u+U IGS20 EXT  IAC
## 2292 302400.00000000   900.00000000 60291 0.5000000000000
+  119   C06C07C08C09C10C11C12C13C14C16C19C20C21C22C23C24C25
+        C26C27C28C29C30C32C33C34C35C36C37C38C39C40C41C42C43
+        C44C45C46E02E03E04E05E07E08E09E10E11E12E13E15E18E19
+        E21E24E25E26E27E30E31E33E34E36G01G02G03G04G05G06G07
+        G08G09G10G11G12G13G14G15G16G17G18G19G20G21G22G23G24
+        G25G26G27G28G29G30G31G32J02J03J04R01R02R03R04R05R07
+        R08R09R11R12R13R14R15R16R17R18R19R20R21R22R24R25R26
++        10 11 10  9 11  9 10  9  9 10  8  7  7  8  7  8 10
++         9  9  8  8  7  9 10  9  7  8  9 10 10  9  8  8  8
++        10  8  7  7  8  9  7  7  7  9  7  5  7  6  8  8  9
++         7  7  6  8  6  8  7  8  7  6  7  6  8  7  8  6  7
++         6  7  7  7  8  8  6  8  7  6  6  7  7  5  7 10  6
++         8  6 13  8  6  6  6  7 10 10  9  8  8  7  8  7  8
++         8  7  6  9 10  8  9  9  8  6  8  9  7  9  8 10  9
%c M  cc GPS ccc cccc cccc cccc cccc ccccc ccccc ccccc ccccc
%c cc cc ccc ccc cccc cccc cccc cccc ccccc ccccc ccccc ccccc
%f  0.0000000  0.000000000  0.00000000000  0.000000000000000
%f  0.0000000  0.000000000  0.00000000000  0.000000000000000
%i    0    0    0    0      0      0      0      0         0
%i    0    0    0    0      0      0      0      0         0
/* IAC                                ULTRA-RAPID PREDICTION
/* S/V CLOCKS ARE ALIGNED TO GNSS TIME                      
/* G:C1WC2W R:C1PC2P E:C1XC5X C:C2IC6I J:C1CC2S             
/* PCV:IGS20_2290 OL/AL:FES2004  NONE     YN ORB:CoN CLK:CoN
*  2023 12 13 17 15  0.00000000
PC06 -10436.806824  22905.361437 -33822.170725    206.445737
PC07 -14630.479069  38334.081492   9385.595061   -469.018993
PC08   1152.390425  35899.437787  22270.019917    182.794531
PC09   1897.275469  24966.430502 -33437.639627   -212.895913
PC10  -7428.459050  38087.522448  16140.146952    -52.126689
PC11   9427.395426  13991.242362  22308.321607    304.571390
PC12 -12226.845087  14847.147936  20264.323055    827.149370
PC13   5125.558568  38234.208926  17522.401206    395.214539
PC14   2904.691148  22266.405457 -16526.659555   -255.483025
PC16 -12546.352167  21688.843840 -33721.623458   -224.386434
PC19  -9625.090017 -14849.243660  21602.390642   -952.950675
PC20   3147.446555 -25723.094124  10389.105024     32.152666
PC21 -15207.426308  21913.075174   8187.198181   -967.721242
PC22 -17602.365545   5176.293641  21015.415812   -188.050189
PC23  20892.066095   6997.651629  17128.190295   -804.564296
PC24   4543.228923  23369.771773 -14604.435535    689.010851
PC25  18725.673443  20560.478366   2451.171355    277.289101
PC26 -10661.811886  12627.907102 -22509.212543   -219.705020
PC27  20254.315838 -12606.082486 -14484.218883    241.693239
PC28  27754.793052  -2840.656672    664.725575    182.845101
PC29 -19082.640540  -9686.881601 -17911.622578    214.056908
PC30   1636.114124 -16311.340523 -22583.935421    -10.321278
PC32  15067.879817 -21987.671471  -8259.626021   -542.417364
PC33   9673.509129  14879.912955 -21532.765451   -941.926924
PC34     64.859030  16195.986895  22718.696234    324.128777
PC35 -27645.105691   3906.678538   -624.825584    481.518186
PC36 -17853.628990 -21369.986596  -1683.844647    -94.555360
PC37  11461.947290 -11767.210635  22559.962079   -923.112584
PC38  -5122.568719  31871.425535  27268.344112    123.813221
PC39 -16974.270108  20940.573976 -32422.487353     -6.090154
PC40 -22125.761469  34833.245447   8025.530838    -47.717131
PC41  17464.033161  -4413.341566 -21264.808499   -873.423959
PC42  -4246.855565  26075.078636  -8919.109497   -481.699399
PC43  18282.262159  10299.306394  18380.838279     52.154971
PC44 -19940.450914  13371.221665  14241.077213    321.741140
PC45 -20692.867022  -6573.059105 -17524.418347    -54.615041
PC46  -5461.961093 -23583.491145  13831.630855   -107.231188
PE02  16756.384565   5561.219123  23756.365012     86.325139
PE03  24624.572507  -3139.580109 -16135.606178    -79.873054
PE04 -23816.539758  17519.605693  -1475.045602   -279.267359
PE05  11125.082309  12921.259495 -24198.069097   4700.142721
PE07   9407.294825 -21611.775015  17906.520008    -92.847425
PE08  24065.828414 -17215.509702    888.453499   -191.637987
PE09  -9568.168423  21545.995006 -17898.857863   -261.669531
PE10  -9470.695560  13125.461266  24783.176116   -586.082106
PE11   2014.718667  17864.312351  23510.528095   3263.562420
PE12 -18395.245402   7003.111463  22116.294039   -817.310753
PE13  -1289.126712 -17572.912293 -23774.275049    -19.680846
PE15  18772.702373  -6586.760643 -21903.701690    -74.518137
PE18  12765.493673  11223.532260  19119.223414     90.555746
PE19 -23600.579279   1068.237150  17840.039007  -1022.632541
PE21 -11070.127915 -23854.779028 -13580.210212   -568.687884
PE24  -1798.434827  29059.466336  -5438.943919   -483.909359
PE25  10871.954679  24133.297769  13264.452054     -2.023481
PE26 -20722.535612 -17999.613579 -11062.859545    308.625642
PE27   1364.396343 -29137.275957   4981.965744   -223.272624
PE30  13073.762852 -16844.963893  20510.457124   -739.009021
PE31 -12841.020535  17203.607541 -20380.285051    -11.659227
PE33 -27554.133677  -8484.742893   6695.996982      4.127190
PE34  27557.875746   8043.234389  -7236.199108    -83.161524
PE36  20259.357886  18115.575836  11732.439207   -157.198981
PG01 -21880.249584 -14678.156099  -4949.858961    163.926928
PG02 -19036.632223 -15043.895201 -10555.090519   -516.047156
PG03 -11584.695282 -18327.663426  15268.650742     52.050459
PG04 -15419.163649  -7058.020313  20482.772639    238.533353
PG05   6330.651746  25362.988656  -4597.253747   -153.987469
PG06 -10509.009373  10873.525522  21919.752570    479.039985
PG07 -24502.526409  -4248.629395  -9489.695152    -10.974808
PG08  -8195.640950 -13012.104678 -21721.535995   -156.790196
PG09 -22197.787546   3802.519220  14041.414165     25.700080
PG10  11150.831101 -15170.208308 -18398.046586    -65.166653
PG11   1098.676454  16781.757037  20592.588553   -499.325943
PG12  10246.379101  19545.162079  14554.249626   -457.056161
PG13  -3408.237733  17107.996728 -20166.989301    605.263816
PG14 -13609.101429  11394.281832 -19682.732527    269.849070
PG15   9665.350455  12845.855332 -21621.760682    106.577910
PG16    656.245208 -26284.446428    542.592135   -404.825109
PG17 -23081.204217  13243.184733   -716.706036    722.044398
PG18  23729.127946   3003.446508 -11728.950331   -505.286624
PG19 -19345.215069  16228.956030   7443.436663    411.981064
PG20   -179.524430  25120.888894   8951.013486    396.832926
PG21 -16556.157809 -16145.810219 -13358.023868    141.642065
PG22 -10746.879040  18853.044954 -15068.664720     66.710542
PG23  14766.297583  -1568.136354 -22004.827226    115.456312
PG24  18726.340658  15768.510488 -11206.743201   -392.557278
PG25  15145.219436   7581.161687  20194.520003    481.333542
PG26   4251.010383 -23770.810751  10497.483659    209.522023
PG27   5942.504258 -18993.844969 -17635.937248    -82.505343
PG28  12926.895234 -10208.446761  20808.020974    -69.195743
PG29  22119.836172  -1277.590251  14677.046454   -609.790747
PG30 -19388.584151   4936.960203 -17474.560272   -457.850855
PG31   4697.840065 -14650.088934  21416.099445   -226.563874
PG32  20725.486677 -16309.012351   2130.605627   -595.931261
PJ02 -21854.061101  29254.556103 -16360.811704     -0.547283
PJ03 -27911.414341  23986.588891  25827.391415    -11.826505
PJ04 -30522.001512  28364.484478  12396.235057     74.129118
PR01  12962.329884  -1153.579234 -21941.444671     72.044199
PR02  16633.248277 -16224.284584 -10398.661193    -22.342864
PR03  10493.833859 -22136.677762   7029.211658     90.842475
PR04   -876.823111 -15587.398769  20191.543231    215.236490
PR05 -12016.028774   -780.925612  22499.776667    123.740793
PR07 -10135.319086  22121.093929  -7715.505390     71.258499
PR08   1143.581895  15540.763623 -20152.213186    -73.677883
PR09  -9709.571575   5841.486659 -22837.451631    158.519608
PR11  11200.189161  22861.905301  -1471.411326   -220.986347
PR12  15186.700630  12215.225662  16486.160377     34.423246
PR13  10670.276469  -3373.595440  22903.157760    -42.277129
PR14  -1495.485719 -19724.284054  16121.355600     25.747976
PR15 -11637.753823 -22700.335372     47.534692     83.977691
PR16 -15183.879034 -12462.625895 -16286.979772     21.505664
PR17   6381.388732  -9951.617015 -22592.563770     43.193239
PR18 -11711.873238 -10024.936675 -20315.063868    116.687987
PR19 -22941.178044  -6407.474390  -9113.911973   -258.182603
PR20 -22489.522588   2931.076197  11729.952561   -105.098639
PR21  -5763.630602   9936.731254  22778.848781    -60.714134
PR22  12303.730389  10597.974627  19698.762398     98.089829
PR24  22050.561415  -4297.755738 -12073.155147    -35.802759
PR25    775.890530  15978.014379 -19844.759172    -12.415120
PR26  -6703.979748  10004.453516  22493.582748      0.713751
EOF
